NORAD_CAT_ID,OBJECT_NAME,OBJECT_TYPE,EPOCH,MEAN_MOTION,ECCENTRICITY,INCLINATION,RA_OF_ASC_NODE,ARG_OF_PERICENTER,MEAN_ANOMALY,BSTAR,MEAN_MOTION_DOT,MEAN_MOTION_DDOT,TLE_LINE0,TLE_LINE1,TLE_LINE2,SEMIMAJOR_AXIS,PERIOD,APOGEE,PERIGEE,DECAYED
53970.0,STARLINK-4567,PAYLOAD,2024-05-03 20:21:04,15.08821746,0.0001546,53.2182,8.644,102.0133,258.1033,-0.00019299,-3.357e-05,0.0,0 STARLINK-4567,1 53970U 22125G   24124.84796937 -.00003357  00000-0 -19299-3 0  9995,2 53970  53.2182   8.6440 0001546 102.0133 258.1033 15.08821746 87587,6917.936,95.439,540.871,538.732,0.0
53970.0,STARLINK-4567,PAYLOAD,2024-05-03 21:56:27,15.08821324,0.0001487,53.2181,8.3467,101.7808,258.3351,-0.00017198,-3.023e-05,0.0,0 STARLINK-4567,1 53970U 22125G   24124.91421043 -.00003023  00000-0 -17198-3 0  9992,2 53970  53.2181   8.3467 0001487 101.7808 258.3351 15.08821324 87533,6917.937,95.439,540.831,538.774,0.0
53970.0,STARLINK-4567,PAYLOAD,2024-05-04 20:11:52,15.08846592,0.0001398,53.2182,4.1837,106.4383,253.6763,0.00096964,0.0001518,0.0,0 STARLINK-4567,1 53970U 22125G   24125.84157499  .00015180  00000-0  96964-3 0  9999,2 53970  53.2182   4.1837 0001398 106.4383 253.6763 15.08846592 87731,6917.86,95.437,540.692,538.758,0.0
53970.0,STARLINK-4567,PAYLOAD,2024-05-04 23:22:38,15.08854973,0.0001367,53.218,3.5891,106.3127,253.8015,0.0011716,0.00018415,0.0,0 STARLINK-4567,1 53970U 22125G   24125.97405366  .00018415  00000-0  11716-2 0  9997,2 53970  53.2180   3.5891 0001367 106.3127 253.8015 15.08854973 87692,6917.835,95.437,540.645,538.754,0.0
53970.0,STARLINK-4567,PAYLOAD,2024-05-05 21:38:01,15.0886453,0.0001305,53.2172,359.4242,99.7769,260.337,0.00073702,0.00011469,0.0,0 STARLINK-4567,1 53970U 22125G   24126.90140527  .00011469  00000-0  73702-3 0  9992,2 53970  53.2172 359.4242 0001305  99.7769 260.3370 15.08864530 87894,6917.805,95.436,540.573,538.768,0.0
53970.0,STARLINK-4567,PAYLOAD,2024-05-06 08:45:43,15.08856679,0.0001663,53.2169,357.3423,87.2092,272.909,0.00047835,7.337e-05,0.0,0 STARLINK-4567,1 53970U 22125G   24127.36508476  .00007337  00000-0  47835-3 0  9991,2 53970  53.2169 357.3423 0001663  87.2092 272.9090 15.08856679 87967,6917.829,95.436,540.845,538.544,0.0
53970.0,STARLINK-4567,PAYLOAD,2024-05-06 21:28:48,15.08852064,0.0001382,53.2166,354.9636,88.8781,271.2369,0.00036437,5.518e-05,0.0,0 STARLINK-4567,1 53970U 22125G   24127.89500177  .00005518  00000-0  36437-3 0  9994,2 53970  53.2166 354.9636 0001382  88.8781 271.2369 15.08852064 88048,6917.844,95.437,540.665,538.752,0.0
53970.0,STARLINK-4567,PAYLOAD,2024-05-07 08:36:30,15.08847041,0.0001228,53.2162,352.8826,83.6783,276.4349,0.00020596,2.992e-05,0.0,0 STARLINK-4567,1 53970U 22125G   24128.35868205  .00002992  00000-0  20596-3 0  9997,2 53970  53.2162 352.8826 0001228  83.6783 276.4349 15.08847041 88118,6917.859,95.437,540.573,538.874,0.0
53970.0,STARLINK-4567,PAYLOAD,2024-05-07 21:19:35,15.08837389,0.00014,53.2186,350.5026,102.0038,258.1111,-7.1041e-05,-1.418e-05,0.0,0 STARLINK-4567,1 53970U 22125G   24128.88860780 -.00001418  00000-0 -71041-4 0  9991,2 53970  53.2186 350.5026 0001400 102.0038 258.1111 15.08837389 88198,6917.888,95.438,540.722,538.785,0.0
53970.0,STARLINK-4567,PAYLOAD,2024-05-08 00:30:21,15.08840215,0.0001275,53.218,349.9067,109.2454,250.8676,1.3189e-05,-7.8e-07,0.0,0 STARLINK-4567,1 53970U 22125G   24129.02108596 -.00000078  00000-0  13189-4 0  9997,2 53970  53.2180 349.9067 0001275 109.2454 250.8676 15.08840215 88153,6917.88,95.438,540.627,538.863,0.0
53970.0,STARLINK-4567,PAYLOAD,2024-05-08 21:10:22,15.08850055,0.0001268,53.2185,346.042,91.708,268.4057,0.00037462,5.681e-05,0.0,0 STARLINK-4567,1 53970U 22125G   24129.88220562  .00005681  00000-0  37462-3 0  9992,2 53970  53.2185 346.0420 0001268  91.7080 268.4057 15.08850055 88286,6917.85,95.437,540.592,538.837,0.0
53970.0,STARLINK-4567,PAYLOAD,2024-05-09 00:21:08,15.08855043,0.0001325,53.2181,345.4464,91.2853,268.8291,0.00056368,8.698e-05,0.0,0 STARLINK-4567,1 53970U 22125G   24130.01468480  .00008698  00000-0  56368-3 0  9999,2 53970  53.2181 345.4464 0001325  91.2853 268.8291 15.08855043 88365,6917.834,95.437,540.616,538.783,0.0
53970.0,STARLINK-4567,PAYLOAD,2024-05-09 21:01:09,15.08858455,0.0001189,53.2178,341.5786,101.149,258.9636,0.0006662,0.00010336,0.0,0 STARLINK-4567,1 53970U 22125G   24130.87580500  .00010336  00000-0  66620-3 0  9995,2 53970  53.2178 341.5786 0001189 101.1490 258.9636 15.08858455 88498,6917.824,95.436,540.512,538.866,0.0
53970.0,STARLINK-4567,PAYLOAD,2024-05-10 14:30:24,15.08839016,0.0001739,53.2204,338.3163,105.2243,254.8942,0.00046005,7.041e-05,0.0,0 STARLINK-4567,1 53970U 22125G   24131.60444780  .00007041  00000-0  46005-3 0  9990,2 53970  53.2204 338.3163 0001739 105.2243 254.8942 15.08839016 88546,6917.883,95.438,540.951,538.545,0.0
53970.0,STARLINK-4567,PAYLOAD,2024-05-10 20:51:56,15.08847735,0.0001511,53.2195,337.1278,115.0732,245.0417,0.00015394,2.163e-05,0.0,0 STARLINK-4567,1 53970U 22125G   24131.86940573  .00002163  00000-0  15394-3 0  9996,2 53970  53.2195 337.1278 0001511 115.0732 245.0417 15.08847735 88646,6917.857,95.437,540.767,538.676,0.0
53970.0,STARLINK-4567,PAYLOAD,2024-05-11 12:45:45,15.08909167,7.84e-05,53.2176,334.1467,87.7332,272.375,0.0016013,0.00025337,0.0,0 STARLINK-4567,1 53970U 22125G   24132.53178154  .00025337  00000-0  16013-2 0  9995,2 53970  53.2176 334.1467 0000784  87.7332 272.3750 15.08909167 88746,6917.669,95.433,540.076,538.992,0.0
53970.0,STARLINK-4567,PAYLOAD,2024-05-11 20:42:43,15.08819789,0.0002015,53.2193,332.6675,77.5757,282.546,-0.0016156,-0.00025895,0.0,0 STARLINK-4567,1 53970U 22125G   24132.86299786 -.00025895  00000-0 -16156-2 0  9995,2 53970  53.2193 332.6675 0002015  77.5757 282.5460 15.08819789 88792,6917.942,95.439,541.201,538.413,0.0
53970.0,STARLINK-4567,PAYLOAD,2024-05-11 22:18:05,15.08820252,0.0001783,53.2176,332.364,87.2914,272.8282,-0.0016687,-0.00026733,0.0,0 STARLINK-4567,1 53970U 22125G   24132.92923357 -.00026733  00000-0 -16687-2 0  9991,2 53970  53.2176 332.3640 0001783  87.2914 272.8282 15.08820252 88742,6917.941,95.439,541.039,538.572,0.0
53970.0,STARLINK-4567,PAYLOAD,2024-05-12 06:15:03,15.08782179,0.000221,53.2177,330.8724,94.4432,265.6813,-0.0019194,-0.00030659,0.0,0 STARLINK-4567,1 53970U 22125G   24133.26045181 -.00030659  00000-0 -19194-2 0  9997,2 53970  53.2177 330.8724 0002210  94.4432 265.6813 15.08782179 88857,6918.057,95.441,541.451,538.393,0.0
53970.0,STARLINK-4567,PAYLOAD,2024-05-12 20:33:33,15.08805837,0.0001433,53.2159,328.201,104.0217,256.0935,0.0013844,0.00021793,0.0,0 STARLINK-4567,1 53970U 22125G   24133.85663386  .00021793  00000-0  13844-2 0  9998,2 53970  53.2159 328.2010 0001433 104.0217 256.0935 15.08805837 88947,6917.985,95.44,540.841,538.858,0.0
53970.0,STARLINK-4567,PAYLOAD,2024-05-13 12:27:25,15.08836206,0.0001507,53.2172,325.2265,98.8402,261.2761,0.0014614,0.00023044,0.0,0 STARLINK-4567,1 53970U 22125G   24134.51904229  .00023044  00000-0  14614-2 0  9993,2 53970  53.2172 325.2265 0001507  98.8402 261.2761 15.08836206 88982,6917.892,95.438,540.8,538.714,0.0
53970.0,STARLINK-4567,PAYLOAD,2024-05-14 12:18:10,15.08871962,0.0001461,53.2171,320.7676,87.0368,273.0792,0.00074197,0.0001155,0.0,0 STARLINK-4567,1 53970U 22125G   24135.51262425  .00011550  00000-0  74197-3 0  9991,2 53970  53.2171 320.7676 0001461  87.0368 273.0792 15.08871962 89194,6917.783,95.436,540.658,538.637,0.0
53970.0,STARLINK-4567,PAYLOAD,2024-05-14 18:39:42,15.08878097,0.0001471,53.2174,319.5785,85.1293,274.9867,0.00076896,0.00011984,0.0,0 STARLINK-4567,1 53970U 22125G   24135.77757823  .00011984  00000-0  76896-3 0  9999,2 53970  53.2174 319.5785 0001471  85.1293 274.9867 15.08878097 89178,6917.764,95.435,540.647,538.611,0.0
53970.0,STARLINK-4567,PAYLOAD,2024-05-15 12:08:56,15.08863109,0.0001998,53.2158,316.3059,88.9885,271.1336,0.00023223,3.412e-05,0.0,0 STARLINK-4567,1 53970U 22125G   24136.50621348  .00003412  00000-0  23223-3 0  9996,2 53970  53.2158 316.3059 0001998  88.9885 271.1336 15.08863109 89348,6917.81,95.436,541.057,538.293,0.0
53970.0,STARLINK-4567,PAYLOAD,2024-05-15 18:30:29,15.08851876,0.0001561,53.2188,315.1156,99.8367,260.2801,-5.9474e-05,-1.235e-05,0.0,0 STARLINK-4567,1 53970U 22125G   24136.77117443 -.00001235  00000-0 -59474-4 0  9992,2 53970  53.2188 315.1156 0001561  99.8367 260.2801 15.08851876 89386,6917.844,95.437,540.789,538.629,0.0
53970.0,STARLINK-4567,PAYLOAD,2024-05-15 21:41:15,15.08852111,0.0001529,53.2188,314.521,100.4122,259.7043,-3.5727e-05,-8.57e-06,0.0,0 STARLINK-4567,1 53970U 22125G   24136.90365470 -.00000857  00000-0 -35727-4 0  9996,2 53970  53.2188 314.5210 0001529 100.4122 259.7043 15.08852111 89342,6917.843,95.437,540.766,538.651,0.0
53970.0,STARLINK-4567,PAYLOAD,2024-05-16 11:59:42,15.08862485,0.0001394,53.2181,311.845,97.7188,262.3962,0.00010583,1.398e-05,0.0,0 STARLINK-4567,1 53970U 22125G   24137.49980321  .00001398  00000-0  10583-3 0  9990,2 53970  53.2181 311.8450 0001394  97.7188 262.3962 15.08862485 89492,6917.812,95.436,540.641,538.712,0.0
53970.0,STARLINK-4567,PAYLOAD,2024-05-16 18:21:14,15.0888122,0.0001381,53.2167,310.6543,85.8759,274.2391,0.00038249,5.811e-05,0.0,0 STARLINK-4567,1 53970U 22125G   24137.76475035  .00005811  00000-0  38249-3 0  9994,2 53970  53.2167 310.6543 0001381  85.8759 274.2391 15.08881220 89535,6917.754,95.435,540.575,538.664,0.0
53970.0,STARLINK-4567,PAYLOAD,2024-05-17 11:50:30,15.08835969,9.49e-05,53.2183,307.3851,53.1128,306.9951,-8.2618e-05,-1.602e-05,0.0,0 STARLINK-4567,1 53970U 22125G   24138.49340935 -.00001602  00000-0 -82618-4 0  9991,2 53970  53.2183 307.3851 0000949  53.1128 306.9951 15.08835969 89641,6917.893,95.438,540.414,539.101,0.0
53970.0,STARLINK-4567,PAYLOAD,2024-05-17 18:12:03,15.0883166,1.83e-05,53.2182,306.1957,4.206,355.8934,-0.00013525,-2.439e-05,0.0,0 STARLINK-4567,1 53970U 22125G   24138.75837101 -.00002439  00000-0 -13525-3 0  9995,2 53970  53.2182 306.1957 0000183   4.2060 355.8934 15.08831660 89622,6917.906,95.438,539.897,539.644,0.0
